CUTE-1 (CO-55)          
1 27844U 03031E   26182.99996152  .00000303  00000+0  15002-3 0  9997
2 27844  98.6736 191.3725 0010408 137.1021 223.0971 14.24344824193780
CUBESAT XI-IV (CO-57)   
1 27848U 03031J   26183.27698888  .00000271  00000+0  13794-3 0  9998
2 27848  98.6769 191.3466 0009960 153.7682 206.4003 14.23628936193521
CUBESAT XI-V            
1 28895U 05043F   26183.41856719  .00001691  00000+0  27314-3 0  9991
2 28895  98.3001 339.3615 0014682 152.9722 207.2252 14.72674389103997
CUTE-1.7+APD II (CO-65) 
1 32785U 08021C   26183.56122094  .00006417  00000+0  40310-3 0  9993
2 32785  97.8284 165.3013 0008151 348.3285  11.7753 15.09600561987519
CANX-2                  
1 32790U 08021H   26183.44043751  .00004827  00000+0  33779-3 0  9992
2 32790  97.8637 163.5159 0010080   1.7954 358.3306 15.05724393987100
SEEDS II (CO-66)        
1 32791U 08021J   26183.47484271  .00019684  00000+0  61380-3 0  9998
2 32791  97.7520 182.1078 0001445 187.7545 172.3674 15.33279762989632
SWISSCUBE               
1 35932U 09051B   26183.28877764  .00001164  00000+0  23926-3 0  9992
2 35932  98.4025  91.4397 0007061 154.9157 205.2388 14.62510844891361
BEESAT-1                
1 35933U 09051C   26183.30608930  .00000968  00000+0  20391-3 0  9997
2 35933  98.3950  91.0608 0005269 165.6666 194.4685 14.61745142891393
ITUPSAT1                
1 35935U 09051E   26182.96766707  .00000816  00000+0  17832-3 0  9995
2 35935  98.4034  89.8935 0007122 182.8141 177.3019 14.60462418890892
TISAT 1                 
1 36799U 10035E   26183.33584864  .00024290  00000+0  78002-3 0  9990
2 36799  98.0714 131.2353 0003393 143.9685 216.1784 15.32295382870023
AEROCUBE 4.5A           
1 38767U 12048K   26180.81601320  .02026816  74244-5  11805-2 0  9992
2 38767  64.6148 340.0554 0018867 267.4936  92.4076 16.17962819374686
STRAND-1                
1 39090U 13009E   26183.44238219  .00000331  00000+0  12561-3 0  9991
2 39090  98.3927   3.3015 0008616 177.2756 182.8479 14.37172679699256
BRITE-AUSTRIA           
1 39091U 13009F   26183.46186329  .00000204  00000+0  83939-4 0  9995
2 39091  98.4001   2.5199 0009951 187.8418 172.2614 14.36548283699240
NEE-01 PEGASO           
1 39151U 13018B   26183.33816391  .00003478  00000+0  33370-3 0  9996
2 39151  98.1242 327.9905 0013773 112.9357 247.3317 14.93736500712961
POPACS 2                
1 39269U 13055E   26181.19306930  .00014049  00000+0  23497-3 0  9997
2 39269  80.9915 129.3032 0416257 152.0121 210.4183 14.91555130665156
POPACS 3                
1 39270U 13055F   26183.50963922  .00010225  00000+0  24146-3 0  9990
2 39270  80.9993 212.5717 0550469  23.3588 339.1609 14.56411128640783
ZACUBE-1 (TSHEPISOSAT)  
1 39417U 13066B   26183.47106021  .00003928  00000+0  30455-3 0  9992
2 39417  97.8040 145.8855 0042932 196.1986 163.7868 15.01273353683028
WNISAT-1                
1 39423U 13066H   26183.65191518  .00001475  00000+0  27566-3 0  9998
2 39423  97.7221 331.7119 0162977 182.6990 177.3349 14.58096043668984
TRITON-1                
1 39427U 13066M   26183.62507564  .00001456  00000+0  17902-3 0  9993
2 39427  97.8239  93.0805 0089543 183.0316 177.0367 14.81753948676371
GOMX-1                  
1 39430U 13066Q   26183.50661862  .00001523  00000+0  23355-3 0  9990
2 39430  97.6468  23.0020 0129378  28.8657 331.9628 14.69510115672161
CUBEBUG-2 (LO-74)       
1 39440U 13066AA  26183.60329776  .00005482  00000+0  50528-3 0  9997
2 39440  97.8915 132.6479 0056651 338.1191  21.7609 14.93890310679298
NEE-02 KRYSAOR          
1 39441U 13066AB  26183.55500345  .00002950  00000+0  32516-3 0  9999
2 39441  97.8896 122.6607 0066608  20.7402 339.6493 14.86690645678484
FUNCUBE-1 (AO-73)       
1 39444U 13066AE  26183.43482958  .00007511  00000+0  46292-3 0  9992
2 39444  97.8285 155.2011 0037288 149.2742 211.0681 15.09675808681965
UWE-3                   
1 39446U 13066AG  26183.58834462  .00003508  00000+0  30245-3 0  9994
2 39446  97.8709 139.7682 0047192 268.5027  91.0788 14.97137588679881
BRITE-CA1 (TORONTO)     
1 40020U 14033L   26183.59702273  .00001152  00000+0  18040-3 0  9996
2 40020  97.9759 312.2426 0077603 226.8808 132.5892 14.72702923644484
DUCHIFAT-1              
1 40021U 14033M   26183.10087887  .00143832  00000+0  12875-2 0  9992
2 40021  98.0445 244.3920 0000096 180.5510 179.5749 15.67889029658082
NANOSATC-BR1            
1 40024U 14033Q   26183.55769089  .00018089  00000+0  58807-3 0  9996
2 40024  98.0706 217.3122 0005205 125.7941 234.3783 15.31958906656331
QB50P1                  
1 40025U 14033R   26182.97796174  .00010559  00000+0  51493-3 0  9995
2 40025  98.0959 195.1628 0009347 164.7109 195.4407 15.18486932655278
QB50P2                  
1 40032U 14033Y   26183.22259638  .00008625  00000+0  46061-3 0  9997
2 40032  98.0749 181.0404 0009169 120.0574 240.1567 15.15355500654943
PERSEUS-M2              
1 40037U 14033AD  26183.65246050  .00001142  00000+0  10841-3 0  9997
2 40037  97.9971 134.5092 0010474 247.0625 112.9490 14.95553130653099
