OBJECT_NAME,OBJECT_ID,EPOCH,MEAN_MOTION,ECCENTRICITY,INCLINATION,RA_OF_ASC_NODE,ARG_OF_PERICENTER,MEAN_ANOMALY,EPHEMERIS_TYPE,CLASSIFICATION_TYPE,NORAD_CAT_ID,ELEMENT_SET_NO,REV_AT_EPOCH,BSTAR,MEAN_MOTION_DOT,MEAN_MOTION_DDOT
CUTE-1 (CO-55),2003-031E,2026-07-01T23:59:56.675328,14.24344824,.00104087,98.6736,191.3725,137.1021,223.0971,0,U,27844,999,19378,.15002425E-3,.303E-5,0
CUBESAT XI-IV (CO-57),2003-031J,2026-07-02T06:38:51.839232,14.23628936,.00099602,98.6769,191.3466,153.7682,206.4003,0,U,27848,999,19352,.13793794E-3,.271E-5,0
CUBESAT XI-V,2005-043F,2026-07-02T10:02:44.205216,14.72674389,.00146824,98.3001,339.3615,152.9722,207.2252,0,U,28895,999,10399,.27313882E-3,.1691E-4,0
CUTE-1.7+APD II (CO-65),2008-021C,2026-07-02T13:28:09.489216,15.09600561,.00081516,97.8284,165.3013,348.3285,11.7753,0,U,32785,999,98751,.40309853E-3,.6417E-4,0
CANX-2,2008-021H,2026-07-02T10:34:13.800864,15.05724393,.00100807,97.8637,163.5159,1.7954,358.3306,0,U,32790,999,98710,.33778879E-3,.4827E-4,0
SEEDS II (CO-66),2008-021J,2026-07-02T11:23:46.410144,15.33279762,.00014457,97.7520,182.1078,187.7545,172.3674,0,U,32791,999,98963,.6138033E-3,.19684E-3,0
SWISSCUBE,2009-051B,2026-07-02T06:55:50.388096,14.62510844,.00070619,98.4025,91.4397,154.9157,205.2388,0,U,35932,999,89136,.23925793E-3,.1164E-4,0
BEESAT-1,2009-051C,2026-07-02T07:20:46.115520,14.61745142,.00052694,98.3950,91.0608,165.6666,194.4685,0,U,35933,999,89139,.20391025E-3,.968E-5,0
ITUPSAT1,2009-051E,2026-07-01T23:13:26.434848,14.60462418,.00071225,98.4034,89.8935,182.8141,177.3019,0,U,35935,999,89089,.17831616E-3,.816E-5,0
TISAT 1,2010-035E,2026-07-02T08:03:37.322496,15.32295382,.00033933,98.0714,131.2353,143.9685,216.1784,0,U,36799,999,87002,.7800168E-3,.2429E-3,0
AEROCUBE 4.5A,2012-048K,2026-06-29T19:35:03.540480,16.17962819,.00188678,64.6148,340.0554,267.4936,92.4076,0,U,38767,999,37468,.11805476E-2,.2026816E-1,.7424434E-5
STRAND-1,2013-009E,2026-07-02T10:37:01.821216,14.37172679,.00086167,98.3927,3.3015,177.2756,182.8479,0,U,39090,999,69925,.12560632E-3,.331E-5,0
BRITE-AUSTRIA,2013-009F,2026-07-02T11:05:04.988256,14.36548283,.00099519,98.4001,2.5199,187.8418,172.2614,0,U,39091,999,69924,.83939292E-4,.204E-5,0
NEE-01 PEGASO,2013-018B,2026-07-02T08:06:57.361824,14.93736500,.00137734,98.1242,327.9905,112.9357,247.3317,0,U,39151,999,71296,.33369981E-3,.3478E-4,0
POPACS 2,2013-055E,2026-06-30T04:38:01.187520,14.91555130,.04162574,80.9915,129.3032,152.0121,210.4183,0,U,39269,999,66515,.23496664E-3,.14049E-3,0
POPACS 3,2013-055F,2026-07-02T12:13:52.828608,14.56411128,.05504693,80.9993,212.5717,23.3588,339.1609,0,U,39270,999,64078,.24145563E-3,.10225E-3,0
ZACUBE-1 (TSHEPISOSAT),2013-066B,2026-07-02T11:18:19.602144,15.01273353,.00429321,97.8040,145.8855,196.1986,163.7868,0,U,39417,999,68302,.30455107E-3,.3928E-4,0
WNISAT-1,2013-066H,2026-07-02T15:38:45.471552,14.58096043,.01629774,97.7221,331.7119,182.6990,177.3349,0,U,39423,999,66898,.27566211E-3,.1475E-4,0
TRITON-1,2013-066M,2026-07-02T15:00:06.535296,14.81753948,.00895434,97.8239,93.0805,183.0316,177.0367,0,U,39427,999,67637,.17901595E-3,.1456E-4,0
GOMX-1,2013-066Q,2026-07-02T12:09:31.848768,14.69510115,.01293787,97.6468,23.0020,28.8657,331.9628,0,U,39430,999,67216,.23355225E-3,.1523E-4,0
CUBEBUG-2 (LO-74),2013-066AA,2026-07-02T14:28:44.926464,14.93890310,.00566514,97.8915,132.6479,338.1191,21.7609,0,U,39440,999,67929,.50528071E-3,.5482E-4,0
NEE-02 KRYSAOR,2013-066AB,2026-07-02T13:19:12.298080,14.86690645,.00666089,97.8896,122.6607,20.7402,339.6493,0,U,39441,999,67848,.32515937E-3,.295E-4,0
FUNCUBE-1 (AO-73),2013-066AE,2026-07-02T10:26:09.275712,15.09675808,.00372882,97.8285,155.2011,149.2742,211.0681,0,U,39444,999,68196,.46292181E-3,.7511E-4,0
UWE-3,2013-066AG,2026-07-02T14:07:12.975168,14.97137588,.00471928,97.8709,139.7682,268.5027,91.0788,0,U,39446,999,67988,.30245019E-3,.3508E-4,0
BRITE-CA1 (TORONTO),2014-033L,2026-07-02T14:19:42.763872,14.72702923,.00776033,97.9759,312.2426,226.8808,132.5892,0,U,40020,999,64448,.18039901E-3,.1152E-4,0
DUCHIFAT-1,2014-033M,2026-07-02T02:25:15.934368,15.67889029,.00000967,98.0445,244.3920,180.5510,179.5749,0,U,40021,999,65808,.12874894E-2,.143832E-2,0
NANOSATC-BR1,2014-033Q,2026-07-02T13:23:04.492896,15.31958906,.00052056,98.0706,217.3122,125.7941,234.3783,0,U,40024,999,65633,.58807267E-3,.18089E-3,0
QB50P1,2014-033R,2026-07-01T23:28:15.894336,15.18486932,.00093476,98.0959,195.1628,164.7109,195.4407,0,U,40025,999,65527,.51493464E-3,.10559E-3,0
QB50P2,2014-033Y,2026-07-02T05:20:32.327232,15.15355500,.00091692,98.0749,181.0404,120.0574,240.1567,0,U,40032,999,65494,.46060823E-3,.8625E-4,0
PERSEUS-M2,2014-033AD,2026-07-02T15:39:32.587200,14.95553130,.00104745,97.9971,134.5092,247.0625,112.9490,0,U,40037,999,65309,.10840589E-3,.1142E-4,0
